0302P         2016 04 30.2615  3.298674  0.229154  208.1626  121.7545    6.0323  20190228  12.5  4.0  302P/Lemmon-PANSTARRS                                    MPC108598
0303P         2014 10 13.5701  2.480022  0.509162  356.8497  347.9818    7.0105  20190228  13.5  4.0  303P/NEAT                                                MPC_92278
0304P         2020 08 11.2039  1.254359  0.602631  335.0417   59.0553    2.6246  20190228  16.5  4.0  304P/Ory                                                 MPC_92987
0305P         2014 11 15.0902  1.429997  0.692256  147.2832  240.1492   11.6362  20190228  18.0  4.0  305P/Skiff                                               MPC101100
0306P         2020 01 22.8523  1.269012  0.593422    0.8018  341.4242    8.3118  20190228  19.0  4.0  306P/LINEAR                                              MPC_92278
0307P         2014 12 18.9500  1.894890  0.673252  222.2452  158.0988    4.4271  20190228  15.0  4.0  307P/LINEAR                                              MPC_91619
0308P         2015 05  5.1232  4.220179  0.362050  333.7714   63.1331    4.8489  20190228  13.0  2.0  308P/Lagerkvist-Carsenty                                 MPC109148
0309P         2015 02 13.2238  1.667628  0.618274   49.9952   10.2448   17.0497  20190228  15.0  4.0  309P/LINEAR                                              MPC_94284
0310P         2015 04 15.0552  2.412600  0.422198   31.9665    8.9508   13.1362  20190228  13.5  4.0  310P/Hill                                                MPC_98566
0311P         2020 10  6.4331  1.937420  0.115142  144.2214  279.2318    4.9680  20190228  17.0  4.0  311P/PANSTARRS                                           MPC109593
0312P         2020 09 25.1138  1.979508  0.428715  207.6022  144.7697   19.7581  20190228  16.0  4.0  312P/NEAT                                                MPC_92279
0313P         2020 04 14.2770  2.419773  0.235572  254.3744  105.9767   10.9777  20190228  15.0  4.0  313P/Gibbs                                               MPC111774
0314P         2016 10 10.1376  4.242023  0.417284  214.1925  267.6245    3.9788  20190228   9.5  4.0  314P/Montani                                             MPC105243
0315P         2016 12  6.5763  2.388050  0.521007   66.3085   69.4769   17.9912  20190228  11.0  4.0  315P/LONEOS                                              MPC111774
0316P         2015 11  4.6835  3.609993  0.165803  193.5470  246.7669    9.9072  20190228  13.5  4.0  316P/LONEOS-Christensen                                  MPC_92279
0317P         2020 09 26.1110  1.274319  0.570443  334.8671  275.5194   11.9500  20190228  17.5  4.0  317P/WISE                                                MPC102103
0318P         2015 10 22.5780  2.442045  0.674288  313.0871   35.7076   17.8701  20190228   8.5  6.0  318P/McNaught-Hartley                                    MPC102103
0319P         2022 03 31.6853  1.192663  0.665977  203.5917  111.3694   15.0915  20190228  15.0  4.0  319P/Catalina-McNaught                                   MPC_97499
0320P         2021 01 17.2119  0.973646  0.685456    0.7416  295.9220    4.9075  20190228  20.5  4.0  320P/McNaught                                            MPC_95736
0321P         2020 01 17.2665  0.045951  0.981033  172.7158  165.0494   20.0293  20190228  20.0  4.0  321P/SOHO                                                MPEC_2017-L52
0321P         2020 01 17.2389  0.045845  0.981077  172.5581  165.2020   20.1758  20190228  20.0  4.0  321P/SOHO                                                MPC_94284
0322P         2019 08 31.5028  0.050657  0.979816   56.7885  351.6227   11.4761  20190228  19.0  4.0  322P/SOHO                                                MPC102103
0323P         2021 01 17.9509  0.039405  0.984745  354.3397  322.9807    4.6905  20190228  20.0  4.0  323P/SOHO                                                MPC102957
0324P         2021 05  8.6513  2.616290  0.154309   58.2934  270.6424   21.4239  20190228  13.0  4.0  324P/La-Sagra                                            MPC108598
0325P         2022 03 28.4943  1.430817  0.594016  343.6607  257.5800   16.7033  20190228  14.0  4.0  325P/Yang-Gao                                            MPC_95736
0326P         2015 10 21.5700  2.778284  0.316751  278.6620   99.8132    2.4707  20190228  13.5  4.0  326P/Hill                                                MPC103849
0327P         2015 12 11.8572  1.560177  0.562241  185.0344  173.9618   36.2210  20190228  16.0  4.0  327P/Van-Ness                                            MPC_97499
0328P         2015 12 23.6295  1.885663  0.550867   30.5345  341.6009   17.6551  20190228  14.5  4.0  328P/LONEOS-Tucker                                       MPC109148
0329P         2015 12  2.2163  1.676735  0.677301  343.6128   87.6898   21.6616  20190228  13.5  4.0  329P/LINEAR-Catalina                                     MPC101101
0330P         2016 08 31.0861  2.976161  0.551493  188.7531  293.2391   15.6590  20190228  12.0  4.0  330P/Catalina                                            MPC105243
0331P         2020 09 25.5035  2.883329  0.040335  182.8547  216.7918    9.7403  20190228  12.0  4.0  331P/Gibbs                                               MPC110497
0332P         2021 08 18.4497  1.575011  0.489736  152.4245    3.7918    9.3846  20190228  18.0  4.0  332P/Ikeya-Murakami                                      MPEC_2016-K18
0332P         2021 08 18.4496  1.575012  0.489735  152.4243    3.7918    9.3846  20190228  18.0  4.0  332P-A/Ikeya-Murakami                                    MPC_99822
0332P         2016 03 17.1650  1.572891  0.489707  152.3711    3.8028    9.3805  0         19.0  4.0  332P-B/Ikeya-Murakami                                    MPEC_2016-EI8
0332P         2021 08 18.3719  1.574979  0.489740  152.4157    3.7922    9.3837  20190228  16.5  4.0  332P-C/Ikeya-Murakami                                    MPC_99822
0332P         2016 03 17.2819  1.572064  0.489778  152.4393    3.7923    9.3761  0         19.0  4.0  332P-D/Ikeya-Murakami                                    MPEC_2016-ED0
0332P         2016 03 17.0610  1.573139  0.489220  152.2825    3.8228    9.3774  0         21.0  4.0  332P-E/Ikeya-Murakami                                    MPEC_2016-ED0
0332P         2016 03 17.8554  1.584174  0.499189  152.8203    3.4757    9.5293  0         21.0  4.0  332P-F/Ikeya-Murakami                                    MPEC_2016-ED0
0332P         2016 03 19.5375  1.549652  0.492004  154.4000    3.6955    9.2523  0         19.0  4.0  332P-G/Ikeya-Murakami                                    MPEC_2016-ED0
0332P         2021 08 18.7303  1.574963  0.489776  152.4165    3.7919    9.3842  20190228  19.0  4.0  332P-H/Ikeya-Murakami                                    MPC100285
0332P         2021 08 18.7303  1.574963  0.489776  152.4165    3.7919    9.3842  20190228  19.0  4.0  332P-H/Ikeya-Murakami                                    MPEC_2016-K18
0332P         2016 03 17.3515  1.573073  0.489555  152.3297    3.8048    9.3791  0         20.5  2.0  332P-I/Ikeya-Murakami                                    MPEC_2016-ED0
0332P         2016 03 17.7739  1.575357  0.494294  152.7712    3.6729    9.4296  0         22.5  2.0  332P-J/Ikeya-Murakami                                    MPEC_2016-EI8
0333P         2016 04  3.5257  1.114875  0.735986   26.1172  115.5789  131.8742  20190228  15.0  4.0  333P/LINEAR                                              MPC104796
0334P         2017 05 17.4897  4.198025  0.372017   82.8607   91.6237   19.5089  20190228  10.5  4.0  334P/NEAT                                                MPC111774
0335P         2015 11  5.2552  1.629507  0.544730  162.2730  330.8438    7.2883  20190228  17.0  4.0  335P/Gibbs                                               MPC_10028
0336P         2017 02  3.3390  2.783499  0.446171  308.6006  298.2436   17.8350  20190228  13.5  4.0  336P/McNaught                                            MPC105244
0337P         2016 07 13.6465  1.654075  0.496943  160.9337  106.0755   15.3712  20190228  17.0  4.0  337P/WISE                                                MPC112394
0338P         2016 11 21.8421  2.300020  0.410371    4.4495    9.7957   25.3541  20190228  12.0  4.0  338P/McNaught                                            MPC104796
0339P         2016 07 24.0253  1.342263  0.636618   27.4978  172.7706    5.7408  20190228  17.0  4.0  339P/Gibbs                                               MPC101101
0340P         2016 11 18.5827  3.061383  0.280060   35.7602  291.7307    2.0792  20190228  13.0  4.0  340P/Boattini                                            MPC102957
0341P         2016 05 26.8065  2.516873  0.414266  312.0839   30.0404    3.7933  20190228  12.5  4.0  341P/Gibbs                                               MPC109148
0342P         2021 10 20.9940  0.052873  0.982618   57.3804   44.0510   12.9739  20190228  20.0  4.0  342P/SOHO                                                MPC101101
0343P         2017 01 27.4917  2.278609  0.583238  137.4520  257.2514    5.5828  20190228  14.0  4.0  343P/NEAT-LONEOS                                         MPC109148
0344P         2016 10 31.7830  2.820062  0.421188  140.5294  273.1914    3.4902  20190228  13.0  4.0  344P/Read                                                MPC109148
0345P         2016 07 15.3534  3.154768  0.219741  196.3967  154.5013    2.7251  20190228  12.0  4.0  345P/LINEAR                                              MPC109148
0346P         2017 02 15.3266  2.224605  0.503119  336.0323  102.4796   22.1835  20190228  14.0  4.0  346P/Catalina                                            MPC110086
0347P         2016 09 11.2184  2.221321  0.384583   98.3170  261.0525   11.7475  20190228  15.0  4.0  347P/PANSTARRS                                           MPC108599
